NORAD_CAT_ID,OBJECT_NAME,OBJECT_TYPE,EPOCH,MEAN_MOTION,ECCENTRICITY,INCLINATION,RA_OF_ASC_NODE,ARG_OF_PERICENTER,MEAN_ANOMALY,BSTAR,MEAN_MOTION_DOT,MEAN_MOTION_DDOT,TLE_LINE0,TLE_LINE1,TLE_LINE2,SEMIMAJOR_AXIS,PERIOD,APOGEE,PERIGEE,DECAYED
49180.0,STARLINK-3050,PAYLOAD,2022-03-20 22:00:01,14.96741124,0.0002963,70.0014,328.8316,270.5642,184.0807,-0.0017107,-0.0001963,0.0,0 STARLINK-3050,1 49180U 21082BC  22079.91668981 -.00019630  00000-0 -17107-2 0  9992,2 49180  70.0014 328.8316 0002963 270.5642 184.0807 14.96741124 30508,6955.111,96.209,579.0369999999998,574.915,0.0
49180.0,STARLINK-3050,PAYLOAD,2022-03-21 14:00:01,14.96714217,0.0002937,70.001,327.1547,267.0205,178.706,0.0019174,0.00021923,0.0,0 STARLINK-3050,1 49180U 21082BC  22080.58334491  .00021923  00000-0  19174-2 0  9995,2 49180  70.0010 327.1547 0002937 267.0205 178.7060 14.96714217  3581,6955.194,96.211,579.102,575.016,0.0
49180.0,STARLINK-3050,PAYLOAD,2022-03-21 22:00:00,14.96710127,0.0002847,70.0011,326.3164,271.3419,169.9455,-0.0014992,-0.00017206,0.0,0 STARLINK-3050,1 49180U 21082BC  22080.91667824 -.00017206  00000-0 -14992-2 0  9995,2 49180  70.0011 326.3164 0002847 271.3419 169.9455 14.96710127 30657,6955.206999999999,96.211,579.052,575.092,0.0
49180.0,STARLINK-3050,PAYLOAD,2022-03-22 14:00:01,14.96679464,0.0002773,70.0008,324.6396,267.1424,165.2177,0.0054486,0.00062776,0.0,0 STARLINK-3050,1 49180U 21082BC  22081.58334491  .00062776  00000-0  54486-2 0  9992,2 49180  70.0008 324.6396 0002773 267.1424 165.2177 14.96679464  3599,6955.302,96.213,579.095,575.238,0.0
49180.0,STARLINK-3050,PAYLOAD,2022-03-22 20:00:01,14.96732086,0.0002793,70.0011,324.0107,270.2994,68.7028,-0.0032795,-0.00037443,0.0,0 STARLINK-3050,1 49180U 21082BC  22081.83334491 -.00037443  00000-0 -32795-2 0  9994,2 49180  70.0011 324.0107 0002793 270.2994  68.7028 14.96732086 30790,6955.139,96.21,578.946,575.061,0.0
49180.0,STARLINK-3050,PAYLOAD,2022-03-22 22:00:01,14.96714832,0.0002767,70.0009,323.8011,272.3491,155.6092,-0.00086417,-9.968e-05,0.0,0 STARLINK-3050,1 49180U 21082BC  22081.91668981 -.00009968  00000-0 -86417-3 0  9999,2 49180  70.0009 323.8011 0002767 272.3491 155.6092 14.96714832  3600,6955.191999999999,96.211,578.982,575.133,0.0
49180.0,STARLINK-3050,PAYLOAD,2022-03-23 14:00:01,14.9669205,0.0002682,70.0006,322.1242,267.1648,151.8255,0.0051693,0.00059545,0.0,0 STARLINK-3050,1 49180U 21082BC  22082.58334491  .00059545  00000-0  51693-2 0  9990,2 49180  70.0006 322.1242 0002682 267.1648 151.8255 14.96692050 30906,6955.263000000001,96.212,578.993,575.262,0.0
49180.0,STARLINK-3050,PAYLOAD,2022-03-23 22:00:00,14.96722958,0.0002692,70.0009,321.2857,272.6333,141.9045,-0.00052456,-6.091e-05,0.0,0 STARLINK-3050,1 49180U 21082BC  22082.91667824 -.00006091  00000-0 -52456-3 0  9995,2 49180  70.0009 321.2857 0002692 272.6333 141.9045 14.96722958  3609,6955.167,96.21,578.904,575.16,0.0
49180.0,STARLINK-3050,PAYLOAD,2022-03-24 06:00:00,14.96747367,0.0002657,70.0006,320.4472,274.4546,135.6308,-0.0040484,-0.0004616,0.0,0 STARLINK-3050,1 49180U 21082BC  22083.25001157 -.00046160  00000-0 -40484-2 0  9992,2 49180  70.0006 320.4472 0002657 274.4546 135.6308 14.96747367 31005,6955.090999999999,96.209,578.804,575.1080000000002,0.0
49180.0,STARLINK-3050,PAYLOAD,2022-03-24 14:00:01,14.96704648,0.0002662,70.0007,319.6087,266.4981,139.1567,0.0048188999999999,0.00055488,0.0,0 STARLINK-3050,1 49180U 21082BC  22083.58334491  .00055488  00000-0  48189-2 0  9999,2 49180  70.0007 319.6087 0002662 266.4981 139.1567 14.96704648  3570,6955.224,96.211,578.94,575.237,0.0
49180.0,STARLINK-3050,PAYLOAD,2022-03-24 22:00:00,14.96741992,0.0002735,70.001,318.7703,271.9194,129.2954,-0.0027813,-0.00031802,0.0,0 STARLINK-3050,1 49180U 21082BC  22083.91667824 -.00031802  00000-0 -27813-2 0  9992,2 49180  70.0010 318.7703 0002735 271.9194 129.2954 14.96741992  3592,6955.108,96.209,578.875,575.071,0.0
49180.0,STARLINK-3050,PAYLOAD,2022-03-25 00:00:02,14.96731804,0.0002737,70.0011,318.5606,273.6797,216.4927,-0.0016374,-0.0001879,0.0,0 STARLINK-3050,1 49180U 21082BC  22084.00002315 -.00018790  00000-0 -16374-2 0  9992,2 49180  70.0011 318.5606 0002737 273.6797 216.4927 14.96731804 31112,6955.14,96.21,578.908,575.101,0.0
49180.0,STARLINK-3050,PAYLOAD,2022-03-25 14:00:01,14.96690247,0.0002811,70.001,317.0934,266.1419,126.1852,0.0044908,0.00051657,0.0,0 STARLINK-3050,1 49180U 21082BC  22084.58334491  .00051657  00000-0  44908-2 0  9999,2 49180  70.0010 317.0934 0002811 266.1419 126.1852 14.96690247  3578,6955.268,96.212,579.0880000000002,575.178,0.0
49180.0,STARLINK-3050,PAYLOAD,2022-03-25 22:00:01,14.96712371,0.000283,70.0012,316.255,271.7625,116.1683,-0.00017376,-2.08e-05,0.0,0 STARLINK-3050,1 49180U 21082BC  22084.91668981 -.00002080  00000-0 -17376-3 0  9998,2 49180  70.0012 316.2550 0002830 271.7625 116.1683 14.96712371  3593,6955.2,96.211,579.033,575.096,0.0
49180.0,STARLINK-3050,PAYLOAD,2022-03-26 06:00:00,14.96740404,0.0002827,70.0009,315.4166,272.8164,110.59,-0.004331,-0.00049345,0.0,0 STARLINK-3050,1 49180U 21082BC  22085.25001157 -.00049345  00000-0 -43310-2 0  9993,2 49180  70.0009 315.4166 0002827 272.8164 110.5900 14.96740404 31307,6955.113,96.209,578.944,575.012,0.0
49180.0,STARLINK-3050,PAYLOAD,2022-03-26 14:00:01,14.96710533,0.0002803,70.0002,314.5858,269.2687,109.6573,0.00070152,7.946e-05,0.0,0 STARLINK-3050,1 49180U 21082BC  22085.58334491  .00007946  00000-0  70152-3 0  9993,2 49180  70.0002 314.5858 0002803 269.2687 109.6573 14.96710533  3564,6955.205,96.211,579.02,575.121,0.0
49180.0,STARLINK-3050,PAYLOAD,2022-03-26 22:00:00,14.9671775,0.000284,70.0012,313.74,272.1552,102.362,0.00027931,3.107e-05,0.0,0 STARLINK-3050,1 49180U 21082BC  22085.91667824  .00003107  00000-0  27931-3 0  9991,2 49180  70.0012 313.7400 0002840 272.1552 102.3620 14.96717750 31409,6955.183000000001,96.211,579.023,575.073,0.0
49180.0,STARLINK-3050,PAYLOAD,2022-03-27 14:00:01,14.96690107,0.0002918999999999,70.0011,312.0635,266.687,98.9436,0.0034958,0.00040125,0.0,0 STARLINK-3050,1 49180U 21082BC  22086.58334491  .00040125  00000-0  34958-2 0  9993,2 49180  70.0011 312.0635 0002919 266.6870  98.9436 14.96690107  3587,6955.269,96.212,579.164,575.104,0.0
49180.0,STARLINK-3050,PAYLOAD,2022-03-27 22:00:01,14.96699525,0.000291,70.001,311.2252,272.9092,88.3226,0.00099387,0.00011298,0.0,0 STARLINK-3050,1 49180U 21082BC  22086.91668981  .00011298  00000-0  99387-3 0  9991,2 49180  70.0010 311.2252 0002910 272.9092  88.3226 14.96699525 31550,6955.24,96.212,579.129,575.081,0.0
49180.0,STARLINK-3050,PAYLOAD,2022-03-28 14:00:01,14.96706494,0.0002837,70.0008,309.5487,266.9596,85.3491,0.0031362,0.00035981,0.0,0 STARLINK-3050,1 49180U 21082BC  22087.58335648  .00035981  00000-0  31362-2 0  9999,2 49180  70.0008 309.5487 0002837 266.9596  85.3491 14.96706494  3584,6955.218000000003,96.211,579.056,575.11,0.0
49180.0,STARLINK-3050,PAYLOAD,2022-03-28 22:00:00,14.96710487,0.000284,70.0007,308.7103,273.53700000000003,74.2634,0.0013334,0.00015201,0.0,0 STARLINK-3050,1 49180U 21082BC  22087.91667824  .00015201  00000-0  13334-2 0  9992,2 49180  70.0007 308.7103 0002840 273.5370  74.2634 14.96710487  3579,6955.206,96.211,579.0459999999998,575.095,0.0
49180.0,STARLINK-3050,PAYLOAD,2022-03-29 06:00:02,14.96755738,0.0002851,70.0002,307.8719,272.7847,70.6193,-0.0079925,-0.0009049,0.0,0 STARLINK-3050,1 49180U 21082BC  22088.25002315 -.00090490  00000-0 -79925-2 0  9991,2 49180  70.0002 307.8719 0002851 272.7847  70.6193 14.96755738 31758,6955.065,96.208,578.913,574.948,0.0
49180.0,STARLINK-3050,PAYLOAD,2022-03-29 14:00:01,14.96690993,0.000292,70.0005,307.0336,266.6765,72.2227,0.0025304,0.00028973,0.0,0 STARLINK-3050,1 49180U 21082BC  22088.58334491  .00028973  00000-0  25304-2 0  9997,2 49180  70.0005 307.0336 0002920 266.6765  72.2227 14.96690993 31809,6955.266,96.212,579.1619999999998,575.1,0.0
49180.0,STARLINK-3050,PAYLOAD,2022-03-29 22:00:00,14.96691812,0.0002938,70.0002,306.1952,272.9661,61.4679,0.0014467,0.00016496,0.0,0 STARLINK-3050,1 49180U 21082BC  22088.91667824  .00016496  00000-0  14467-2 0  9998,2 49180  70.0002 306.1952 0002938 272.9661  61.4679 14.96691812  3557,6955.263000000001,96.212,579.172,575.085,0.0
49180.0,STARLINK-3050,PAYLOAD,2022-03-30 02:00:01,14.96693696,0.0002974,69.9999,305.7759,274.4197,237.7772,0.0021853,0.00024996,0.0,0 STARLINK-3050,1 49180U 21082BC  22089.08334491  .00024996  00000-0  21853-2 0  9999,2 49180  69.9999 305.7759 0002974 274.4197 237.7772 14.96693696 31870,6955.2580000000025,96.212,579.191,575.054,0.0
49180.0,STARLINK-3050,PAYLOAD,2022-03-30 14:00:01,14.96704506,0.0002951,70.0001,304.5184,265.843,59.7099,0.0021049,0.00024077,0.0,0 STARLINK-3050,1 49180U 21082BC  22089.58335648  .00024077  00000-0  21049-2 0  9996,2 49180  70.0001 304.5184 0002951 265.8430  59.7099 14.96704506  3545,6955.224,96.211,579.1419999999998,575.0369999999998,0.0
49180.0,STARLINK-3050,PAYLOAD,2022-03-30 22:00:00,14.96701539,0.0002974,69.9999,303.68,272.1605,48.88,0.0016730999999999,0.00019104,0.0,0 STARLINK-3050,1 49180U 21082BC  22089.91667824  .00019104  00000-0  16731-2 0  9994,2 49180  69.9999 303.6800 0002974 272.1605  48.8800 14.96701539 32008,6955.233,96.212,579.1669999999998,575.03,0.0
49180.0,STARLINK-3050,PAYLOAD,2022-03-31 14:00:01,14.96718953,0.0003006,69.9997,302.0031,265.5822,46.5365,0.0014754,0.00016838,0.0,0 STARLINK-3050,1 49180U 21082BC  22090.58334491  .00016838  00000-0  14754-2 0  9994,2 49180  69.9997 302.0031 0003006 265.5822  46.5365 14.96718953  3624,6955.179,96.21,579.135,574.9540000000002,0.0
49180.0,STARLINK-3050,PAYLOAD,2022-03-31 22:00:00,14.96714417,0.0002995,69.9995,301.1645,272.1748,35.5177,0.0024658,0.00028245,0.0,0 STARLINK-3050,1 49180U 21082BC  22090.91667824  .00028245  00000-0  24658-2 0  9999,2 49180  69.9995 301.1645 0002995 272.1748  35.5177 14.96714417  3541,6955.193,96.211,579.1419999999998,574.975,0.0
